FENGYUN 1C DEB          
1 31924U 99025CMB 26061.38315043  .00002434  00000+0  24010-2 0  9997
2 31924  98.4043 213.0728 0273646 245.2614 111.9829 13.64186690925533
FENGYUN 1C DEB          
1 31926U 99025CMD 26061.47412243  .00005878  00000+0  21990-2 0  9998
2 31926  98.9520 164.1598 0035836  26.0945 334.2034 14.31811199963680
FENGYUN 1C DEB          
1 31929U 99025CME 26056.64502132  .00001525  00000+0  53271-3 0  9994
2 31929  98.7969 192.3916 0073750 193.4179 166.5046 14.35196392717209
FENGYUN 1C DEB          
1 31931U 99025CMG 26061.10596326  .00001097  00000+0  11572-2 0  9993
2 31931  97.8207 358.9907 0424749  63.1188 301.2704 13.42727557662879
FENGYUN 1C DEB          
1 31934U 99025CMK 26058.63575588  .00073698  00000+0  35377-2 0  9992
2 31934  98.8646 125.3687 0028071 333.1565  26.8210 15.18208184620059
FENGYUN 1C DEB          
1 31937U 99025CMN 26062.05121113  .00007592  00000+0  81815-3 0  9996
2 31937  99.2498 168.6749 0159024  47.2486 314.1976 14.79911614672569
FENGYUN 1C DEB          
1 31938U 99025CMP 26062.07772864  .00008101  00000+0  56949-3 0  9991
2 31938  98.9174 109.7088 0149819 165.5376 195.0202 14.96716826  3307
FENGYUN 1C DEB          
1 31944U 99025CMV 26058.27232935  .00001513  00000+0  76183-3 0  9997
2 31944  99.2104 212.8326 0152575 149.7952 334.3758 14.12070968639902
FENGYUN 1C DEB          
1 31945U 99025CMW 26062.19062382  .00003448  00000+0  15682-2 0  9996
2 31945  98.9542 144.6719 0060070  60.8532 299.8639 14.21455644963381
FENGYUN 1C DEB          
1 31946U 99025CMX 26034.43231769  .00002977  00000+0  14595-2 0  9998
2 31946  98.8939  99.6427 0083851 256.7253 102.4559 14.16762058647545
FENGYUN 1C DEB          
1 31948U 99025CMZ 26061.67969623  .00003791  00000+0  15150-2 0  9996
2 31948  99.3844 133.1439 0026935 154.4961 359.2029 14.28896001961693
FENGYUN 1C DEB          
1 31949U 99025CNA 26055.20931781  .00000908  00000+0  43702-3 0  9995
2 31949  98.5528  42.8860 0126513   1.5944 358.5610 14.17041662965453
FENGYUN 1C DEB          
1 31952U 99025CND 26061.78675525  .00002099  00000+0  46877-3 0  9999
2 31952  98.9586 189.4248 0114351  51.0451 310.0867 14.54002466983720
FENGYUN 1C DEB          
1 31955U 99025CNG 26062.16531838  .00009882  00000+0  18053-2 0  9994
2 31955  99.2778 314.1741 0043292 298.9429 214.8518 14.65561762977343
FENGYUN 1C DEB          
1 31959U 99025CNL 26049.88169068  .00006789  00000+0  18213-2 0  9995
2 31959  98.5102 286.2955 0028711 314.5294  45.3553 14.48217848653396
FENGYUN 1C DEB          
1 31964U 99025CNR 26055.80472542  .00010765  00000+0  22061-2 0  9999
2 31964  98.6992 188.0125 0030926 165.1521 195.0593 14.60616141685904
