[{"OBJECT_NAME":"FENGYUN 1C DEB","OBJECT_ID":"1999-025CMB","EPOCH":"2026-03-02T09:11:44.197152","MEAN_MOTION":13.6418669,"ECCENTRICITY":0.02736464,"INCLINATION":98.4043,"RA_OF_ASC_NODE":213.0728,"ARG_OF_PERICENTER":245.2614,"MEAN_ANOMALY":111.9829,"EPHEMERIS_TYPE":0,"CLASSIFICATION_TYPE":"U","NORAD_CAT_ID":31924,"ELEMENT_SET_NO":999,"REV_AT_EPOCH":92553,"BSTAR":0.0024010453,"MEAN_MOTION_DOT":2.434e-5,"MEAN_MOTION_DDOT":0},{"OBJECT_NAME":"FENGYUN 1C DEB","OBJECT_ID":"1999-025CMD","EPOCH":"2026-03-02T11:22:44.177952","MEAN_MOTION":14.31811199,"ECCENTRICITY":0.00358364,"INCLINATION":98.952,"RA_OF_ASC_NODE":164.1598,"ARG_OF_PERICENTER":26.0945,"MEAN_ANOMALY":334.2034,"EPHEMERIS_TYPE":0,"CLASSIFICATION_TYPE":"U","NORAD_CAT_ID":31926,"ELEMENT_SET_NO":999,"REV_AT_EPOCH":96368,"BSTAR":0.0021989719,"MEAN_MOTION_DOT":5.878e-5,"MEAN_MOTION_DDOT":0},{"OBJECT_NAME":"FENGYUN 1C DEB","OBJECT_ID":"1999-025CME","EPOCH":"2026-02-25T15:28:49.842048","MEAN_MOTION":14.35196392,"ECCENTRICITY":0.00737502,"INCLINATION":98.7969,"RA_OF_ASC_NODE":192.3916,"ARG_OF_PERICENTER":193.4179,"MEAN_ANOMALY":166.5046,"EPHEMERIS_TYPE":0,"CLASSIFICATION_TYPE":"U","NORAD_CAT_ID":31929,"ELEMENT_SET_NO":999,"REV_AT_EPOCH":71720,"BSTAR":0.00053271137,"MEAN_MOTION_DOT":1.525e-5,"MEAN_MOTION_DDOT":0},{"OBJECT_NAME":"FENGYUN 1C DEB","OBJECT_ID":"1999-025CMG","EPOCH":"2026-03-02T02:32:35.225664","MEAN_MOTION":13.42727557,"ECCENTRICITY":0.04247498,"INCLINATION":97.8207,"RA_OF_ASC_NODE":358.9907,"ARG_OF_PERICENTER":63.1188,"MEAN_ANOMALY":301.2704,"EPHEMERIS_TYPE":0,"CLASSIFICATION_TYPE":"U","NORAD_CAT_ID":31931,"ELEMENT_SET_NO":999,"REV_AT_EPOCH":66287,"BSTAR":0.0011572174,"MEAN_MOTION_DOT":1.097e-5,"MEAN_MOTION_DDOT":0},{"OBJECT_NAME":"FENGYUN 1C DEB","OBJECT_ID":"1999-025CMK","EPOCH":"2026-02-27T15:15:29.308032","MEAN_MOTION":15.18208184,"ECCENTRICITY":0.00280712,"INCLINATION":98.8646,"RA_OF_ASC_NODE":125.3687,"ARG_OF_PERICENTER":333.1565,"MEAN_ANOMALY":26.821,"EPHEMERIS_TYPE":0,"CLASSIFICATION_TYPE":"U","NORAD_CAT_ID":31934,"ELEMENT_SET_NO":999,"REV_AT_EPOCH":62005,"BSTAR":0.0035376936,"MEAN_MOTION_DOT":0.00073698,"MEAN_MOTION_DDOT":0},{"OBJECT_NAME":"FENGYUN 1C DEB","OBJECT_ID":"1999-025CMN","EPOCH":"2026-03-03T01:13:44.641632","MEAN_MOTION":14.79911614,"ECCENTRICITY":0.0159024,"INCLINATION":99.2498,"RA_OF_ASC_NODE":168.6749,"ARG_OF_PERICENTER":47.2486,"MEAN_ANOMALY":314.1976,"EPHEMERIS_TYPE":0,"CLASSIFICATION_TYPE":"U","NORAD_CAT_ID":31937,"ELEMENT_SET_NO":999,"REV_AT_EPOCH":67256,"BSTAR":0.00081815,"MEAN_MOTION_DOT":7.592e-5,"MEAN_MOTION_DDOT":0},{"OBJECT_NAME":"FENGYUN 1C DEB","OBJECT_ID":"1999-025CMP","EPOCH":"2026-03-03T01:51:55.754496","MEAN_MOTION":14.96716826,"ECCENTRICITY":0.0149819,"INCLINATION":98.9174,"RA_OF_ASC_NODE":109.7088,"ARG_OF_PERICENTER":165.5376,"MEAN_ANOMALY":195.0202,"EPHEMERIS_TYPE":0,"CLASSIFICATION_TYPE":"U","NORAD_CAT_ID":31938,"ELEMENT_SET_NO":999,"REV_AT_EPOCH":330,"BSTAR":0.00056949,"MEAN_MOTION_DOT":8.101e-5,"MEAN_MOTION_DDOT":0},{"OBJECT_NAME":"FENGYUN 1C DEB","OBJECT_ID":"1999-025CMV","EPOCH":"2026-02-27T06:32:09.255840","MEAN_MOTION":14.12070968,"ECCENTRICITY":0.0152575,"INCLINATION":99.2104,"RA_OF_ASC_NODE":212.8326,"ARG_OF_PERICENTER":149.7952,"MEAN_ANOMALY":334.3758,"EPHEMERIS_TYPE":0,"CLASSIFICATION_TYPE":"U","NORAD_CAT_ID":31944,"ELEMENT_SET_NO":999,"REV_AT_EPOCH":63990,"BSTAR":0.00076183,"MEAN_MOTION_DOT":1.513e-5,"MEAN_MOTION_DDOT":0},{"OBJECT_NAME":"FENGYUN 1C DEB","OBJECT_ID":"1999-025CMW","EPOCH":"2026-03-03T04:34:29.898048","MEAN_MOTION":14.21455644,"ECCENTRICITY":0.006007,"INCLINATION":98.9542,"RA_OF_ASC_NODE":144.6719,"ARG_OF_PERICENTER":60.8532,"MEAN_ANOMALY":299.8639,"EPHEMERIS_TYPE":0,"CLASSIFICATION_TYPE":"U","NORAD_CAT_ID":31945,"ELEMENT_SET_NO":999,"REV_AT_EPOCH":96338,"BSTAR":0.0015682,"MEAN_MOTION_DOT":3.448e-5,"MEAN_MOTION_DDOT":0},{"OBJECT_NAME":"FENGYUN 1C DEB","OBJECT_ID":"1999-025CMX","EPOCH":"2026-02-03T10:22:32.248416","MEAN_MOTION":14.16762058,"ECCENTRICITY":0.00838514,"INCLINATION":98.8939,"RA_OF_ASC_NODE":99.6427,"ARG_OF_PERICENTER":256.7253,"MEAN_ANOMALY":102.4559,"EPHEMERIS_TYPE":0,"CLASSIFICATION_TYPE":"U","NORAD_CAT_ID":31946,"ELEMENT_SET_NO":999,"REV_AT_EPOCH":64754,"BSTAR":0.0014595404,"MEAN_MOTION_DOT":2.977e-5,"MEAN_MOTION_DDOT":0},{"OBJECT_NAME":"FENGYUN 1C DEB","OBJECT_ID":"1999-025CMZ","EPOCH":"2026-03-02T16:18:45.754272","MEAN_MOTION":14.28896001,"ECCENTRICITY":0.00269358,"INCLINATION":99.3844,"RA_OF_ASC_NODE":133.1439,"ARG_OF_PERICENTER":154.4961,"MEAN_ANOMALY":359.2029,"EPHEMERIS_TYPE":0,"CLASSIFICATION_TYPE":"U","NORAD_CAT_ID":31948,"ELEMENT_SET_NO":999,"REV_AT_EPOCH":96169,"BSTAR":0.0015149999,"MEAN_MOTION_DOT":3.791e-5,"MEAN_MOTION_DDOT":0},{"OBJECT_NAME":"FENGYUN 1C DEB","OBJECT_ID":"1999-025CNA","EPOCH":"2026-02-24T05:01:25.058784","MEAN_MOTION":14.17041662,"ECCENTRICITY":0.0126513,"INCLINATION":98.5528,"RA_OF_ASC_NODE":42.886,"ARG_OF_PERICENTER":1.5944,"MEAN_ANOMALY":358.561,"EPHEMERIS_TYPE":0,"CLASSIFICATION_TYPE":"U","NORAD_CAT_ID":31949,"ELEMENT_SET_NO":999,"REV_AT_EPOCH":96545,"BSTAR":0.00043702,"MEAN_MOTION_DOT":9.08e-6,"MEAN_MOTION_DDOT":0},{"OBJECT_NAME":"FENGYUN 1C DEB","OBJECT_ID":"1999-025CND","EPOCH":"2026-03-02T18:52:55.653600","MEAN_MOTION":14.54002466,"ECCENTRICITY":0.01143515,"INCLINATION":98.9586,"RA_OF_ASC_NODE":189.4248,"ARG_OF_PERICENTER":51.0451,"MEAN_ANOMALY":310.0867,"EPHEMERIS_TYPE":0,"CLASSIFICATION_TYPE":"U","NORAD_CAT_ID":31952,"ELEMENT_SET_NO":999,"REV_AT_EPOCH":98372,"BSTAR":0.00046876762,"MEAN_MOTION_DOT":2.099e-5,"MEAN_MOTION_DDOT":0},{"OBJECT_NAME":"FENGYUN 1C DEB","OBJECT_ID":"1999-025CNG","EPOCH":"2026-03-03T03:58:03.508032","MEAN_MOTION":14.65561762,"ECCENTRICITY":0.0043292,"INCLINATION":99.2778,"RA_OF_ASC_NODE":314.1741,"ARG_OF_PERICENTER":298.9429,"MEAN_ANOMALY":214.8518,"EPHEMERIS_TYPE":0,"CLASSIFICATION_TYPE":"U","NORAD_CAT_ID":31955,"ELEMENT_SET_NO":999,"REV_AT_EPOCH":97734,"BSTAR":0.0018053,"MEAN_MOTION_DOT":9.882e-5,"MEAN_MOTION_DDOT":0},{"OBJECT_NAME":"FENGYUN 1C DEB","OBJECT_ID":"1999-025CNL","EPOCH":"2026-02-18T21:09:38.074752","MEAN_MOTION":14.48217848,"ECCENTRICITY":0.00287115,"INCLINATION":98.5102,"RA_OF_ASC_NODE":286.2955,"ARG_OF_PERICENTER":314.5294,"MEAN_ANOMALY":45.3553,"EPHEMERIS_TYPE":0,"CLASSIFICATION_TYPE":"U","NORAD_CAT_ID":31959,"ELEMENT_SET_NO":999,"REV_AT_EPOCH":65339,"BSTAR":0.0018213478,"MEAN_MOTION_DOT":6.789e-5,"MEAN_MOTION_DDOT":0},{"OBJECT_NAME":"FENGYUN 1C DEB","OBJECT_ID":"1999-025CNR","EPOCH":"2026-02-24T19:18:48.276288","MEAN_MOTION":14.60616141,"ECCENTRICITY":0.00309264,"INCLINATION":98.6992,"RA_OF_ASC_NODE":188.0125,"ARG_OF_PERICENTER":165.1521,"MEAN_ANOMALY":195.0593,"EPHEMERIS_TYPE":0,"CLASSIFICATION_TYPE":"U","NORAD_CAT_ID":31964,"ELEMENT_SET_NO":999,"REV_AT_EPOCH":68590,"BSTAR":0.002206143,"MEAN_MOTION_DOT":0.00010765,"MEAN_MOTION_DDOT":0}]
